{"fetched_at":"2026-03-29T02:12:04Z","count":15717,"tles":[{"name":"PROBA-3 OSC","line1":"1 62258U 24233C   26083.94616610 -.00000065  00000+0  95154-3 0  9997","line2":"2 62258  59.6350 104.5515 8012519 203.0914  76.0223  1.22074277  5781","category":"Other"}]}