{
  "norad_id": 62258,
  "name": "PROBA-3 OSC",
  "history": [
    {
      "epoch": "2026-03-24T22:42:28.751040",
      "apogee_km": 60235.045978027105,
      "perigee_km": 971.8863653245435,
      "latitude_deg": -38.191921988024276,
      "longitude_deg": 112.63194560003467,
      "semi_major_axis_km": 36981.60317167582,
      "eccentricity": 0.8012519,
      "inclination_deg": 59.635,
      "raan_deg": 104.5515,
      "arg_perigee_deg": 203.0914,
      "mean_anomaly_deg": 76.0223,
      "mean_motion_rev_day": 1.22074277
    }
  ]
}